[
    {
        "Altitude(m)": 710567.5494464792,
        "Argument of Periapsis(deg)": 0.006834072711976239,
        "Eccentricity": 0.0,
        "Inclination(deg)": 45.0,
        "Latitude(deg)": -26.995497666119768,
        "Longitude(deg)": 14.991738841188317,
        "Mean Anomaly(deg)": -140.35277001151152,
        "RAAN(deg)": 264.9935488351251,
        "Satellite Name": "Constellation 1 1179",
        "Satellite Number": 1179,
        "Semi-Major Axis(m)": 7083131.272910544,
        "Time(s)": 114
    },
    {
        "Altitude(m)": 710581.395737203,
        "Argument of Periapsis(deg)": 0.006894020718221645,
        "Eccentricity": 0.0,
        "Inclination(deg)": 45.0,
        "Latitude(deg)": -27.03261312868405,
        "Longitude(deg)": 15.041469827231168,
        "Mean Anomaly(deg)": -140.29206887126162,
        "RAAN(deg)": 264.9934922459595,
        "Satellite Name": "Constellation 1 1179",
        "Satellite Number": 1179,
        "Semi-Major Axis(m)": 7083131.272910544,
        "Time(s)": 115
    },
    {
        "Altitude(m)": 710595.2418790964,
        "Argument of Periapsis(deg)": 0.006953968724467052,
        "Eccentricity": 0.0,
        "Inclination(deg)": 45.0,
        "Latitude(deg)": -27.069707711739532,
        "Longitude(deg)": 15.091236070716423,
        "Mean Anomaly(deg)": -140.2313677310117,
        "RAAN(deg)": 264.9934356567939,
        "Satellite Name": "Constellation 1 1179",
        "Satellite Number": 1179,
        "Semi-Major Axis(m)": 7083131.272910544,
        "Time(s)": 116
    },
    {
        "Altitude(m)": 710609.0878244083,
        "Argument of Periapsis(deg)": 0.007013916730712457,
        "Eccentricity": 0.0,
        "Inclination(deg)": 45.0,
        "Latitude(deg)": -27.106781369136378,
        "Longitude(deg)": 15.141037631581712,
        "Mean Anomaly(deg)": -140.1706665907618,
        "RAAN(deg)": 264.9933790676284,
        "Satellite Name": "Constellation 1 1179",
        "Satellite Number": 1179,
        "Semi-Major Axis(m)": 7083131.272910544,
        "Time(s)": 117
    },
    {
        "Altitude(m)": 710622.9335253934,
        "Argument of Periapsis(deg)": 0.007073864736957864,
        "Eccentricity": 0.0,
        "Inclination(deg)": 45.0,
        "Latitude(deg)": -27.14383405465811,
        "Longitude(deg)": 15.190874569750747,
        "Mean Anomaly(deg)": -140.10996545051188,
        "RAAN(deg)": 264.9933224784628,
        "Satellite Name": "Constellation 1 1179",
        "Satellite Number": 1179,
        "Semi-Major Axis(m)": 7083131.272910544,
        "Time(s)": 118
    },
    {
        "Altitude(m)": 710636.778934276,
        "Argument of Periapsis(deg)": 0.0071338127432032696,
        "Eccentricity": 0.0,
        "Inclination(deg)": 45.0,
        "Latitude(deg)": -27.18086572202136,
        "Longitude(deg)": 15.24074677703505,
        "Mean Anomaly(deg)": -140.04926431026203,
        "RAAN(deg)": 264.9932658892973,
        "Satellite Name": "Constellation 1 1179",
        "Satellite Number": 1179,
        "Semi-Major Axis(m)": 7083131.272910544,
        "Time(s)": 119
    },
    {
        "Altitude(m)": 710650.6240032795,
        "Argument of Periapsis(deg)": 0.007193760749448674,
        "Eccentricity": 0.0,
        "Inclination(deg)": 45.0,
        "Latitude(deg)": -27.21787632487494,
        "Longitude(deg)": 15.290654649522251,
        "Mean Anomaly(deg)": -139.9885631700121,
        "RAAN(deg)": 264.99320930013164,
        "Satellite Name": "Constellation 1 1179",
        "Satellite Number": 1179,
        "Semi-Major Axis(m)": 7083131.272910544,
        "Time(s)": 120
    },
    {
        "Altitude(m)": 710664.4686846216,
        "Argument of Periapsis(deg)": 0.007253708755694079,
        "Eccentricity": 0.0,
        "Inclination(deg)": 45.0,
        "Latitude(deg)": -27.254865816801388,
        "Longitude(deg)": 15.340598078993388,
        "Mean Anomaly(deg)": -139.92786202976217,
        "RAAN(deg)": 264.99315271096606,
        "Satellite Name": "Constellation 1 1179",
        "Satellite Number": 1179,
        "Semi-Major Axis(m)": 7083131.272910544,
        "Time(s)": 121
    },
    {
        "Altitude(m)": 710678.3129305001,
        "Argument of Periapsis(deg)": 0.0073136567619394854,
        "Eccentricity": 0.0,
        "Inclination(deg)": 45.0,
        "Latitude(deg)": -27.291834151315626,
        "Longitude(deg)": 15.390577125310134,
        "Mean Anomaly(deg)": -139.8671608895123,
        "RAAN(deg)": 264.99309612180053,
        "Satellite Name": "Constellation 1 1179",
        "Satellite Number": 1179,
        "Semi-Major Axis(m)": 7083131.272910544,
        "Time(s)": 122
    },
    {
        "Altitude(m)": 710692.1566931105,
        "Argument of Periapsis(deg)": 0.0073736047681848904,
        "Eccentricity": 0.0,
        "Inclination(deg)": 45.0,
        "Latitude(deg)": -27.328781281865492,
        "Longitude(deg)": 15.440591848318054,
        "Mean Anomaly(deg)": -139.80645974926236,
        "RAAN(deg)": 264.99303953263495,
        "Satellite Name": "Constellation 1 1179",
        "Satellite Number": 1179,
        "Semi-Major Axis(m)": 7083131.272910544,
        "Time(s)": 123
    },
    {
        "Altitude(m)": 710705.9999246328,
        "Argument of Periapsis(deg)": 0.007433552774430298,
        "Eccentricity": 0.0,
        "Inclination(deg)": 45.0,
        "Latitude(deg)": -27.365707161831185,
        "Longitude(deg)": 15.490642307845338,
        "Mean Anomaly(deg)": -139.7457586090125,
        "RAAN(deg)": 264.99298294346937,
        "Satellite Name": "Constellation 1 1179",
        "Satellite Number": 1179,
        "Semi-Major Axis(m)": 7083131.272910544,
        "Time(s)": 124
    },
    {
        "Altitude(m)": 710719.8425772445,
        "Argument of Periapsis(deg)": 0.007493500780675703,
        "Eccentricity": 0.0,
        "Inclination(deg)": 45.0,
        "Latitude(deg)": -27.40261174452573,
        "Longitude(deg)": 15.540728563703242,
        "Mean Anomaly(deg)": -139.68505746876258,
        "RAAN(deg)": 264.99292635430385,
        "Satellite Name": "Constellation 1 1179",
        "Satellite Number": 1179,
        "Semi-Major Axis(m)": 7083131.272910544,
        "Time(s)": 125
    },
    {
        "Altitude(m)": 710733.6846031034,
        "Argument of Periapsis(deg)": 0.007553448786921108,
        "Eccentricity": 0.0,
        "Inclination(deg)": 45.0,
        "Latitude(deg)": -27.439494983194606,
        "Longitude(deg)": 15.590850507587634,
        "Mean Anomaly(deg)": -139.62435632851276,
        "RAAN(deg)": 264.9928697651382,
        "Satellite Name": "Constellation 1 1179",
        "Satellite Number": 1179,
        "Semi-Major Axis(m)": 7083131.272910544,
        "Time(s)": 126
    },
    {
        "Altitude(m)": 710747.5259543716,
        "Argument of Periapsis(deg)": 0.007613396793166514,
        "Eccentricity": 0.0,
        "Inclination(deg)": 45.0,
        "Latitude(deg)": -27.476356831015075,
        "Longitude(deg)": 15.641008535468,
        "Mean Anomaly(deg)": -139.56365518826283,
        "RAAN(deg)": 264.9928131759727,
        "Satellite Name": "Constellation 1 1179",
        "Satellite Number": 1179,
        "Semi-Major Axis(m)": 7083131.272910544,
        "Time(s)": 127
    },
    {
        "Altitude(m)": 710761.3665831876,
        "Argument of Periapsis(deg)": 0.007673344799411918,
        "Eccentricity": 0.0,
        "Inclination(deg)": 45.0,
        "Latitude(deg)": -27.513197241097433,
        "Longitude(deg)": 15.691202539003262,
        "Mean Anomaly(deg)": -139.50295404801287,
        "RAAN(deg)": 264.9927565868071,
        "Satellite Name": "Constellation 1 1179",
        "Satellite Number": 1179,
        "Semi-Major Axis(m)": 7083131.272910544,
        "Time(s)": 128
    },
    {
        "Altitude(m)": 710775.2064416943,
        "Argument of Periapsis(deg)": 0.007733292805657325,
        "Eccentricity": 0.0,
        "Inclination(deg)": 45.0,
        "Latitude(deg)": -27.550016166483918,
        "Longitude(deg)": 15.741432577930468,
        "Mean Anomaly(deg)": -139.442252907763,
        "RAAN(deg)": 264.9926999976415,
        "Satellite Name": "Constellation 1 1179",
        "Satellite Number": 1179,
        "Semi-Major Axis(m)": 7083131.272910544,
        "Time(s)": 129
    },
    {
        "Altitude(m)": 710789.0454820172,
        "Argument of Periapsis(deg)": 0.00779324081190273,
        "Eccentricity": 0.0,
        "Inclination(deg)": 45.0,
        "Latitude(deg)": -27.586813560148958,
        "Longitude(deg)": 15.791698711967248,
        "Mean Anomaly(deg)": -139.38155176751317,
        "RAAN(deg)": 264.992643408476,
        "Satellite Name": "Constellation 1 1179",
        "Satellite Number": 1179,
        "Semi-Major Axis(m)": 7083131.272910544,
        "Time(s)": 130
    },
    {
        "Altitude(m)": 710802.8836562788,
        "Argument of Periapsis(deg)": 0.007853188818148135,
        "Eccentricity": 0.0,
        "Inclination(deg)": 45.0,
        "Latitude(deg)": -27.623589374999238,
        "Longitude(deg)": 15.842001000810985,
        "Mean Anomaly(deg)": -139.32085062726316,
        "RAAN(deg)": 264.9925868193104,
        "Satellite Name": "Constellation 1 1179",
        "Satellite Number": 1179,
        "Semi-Major Axis(m)": 7083131.272910544,
        "Time(s)": 131
    },
    {
        "Altitude(m)": 710816.7209165861,
        "Argument of Periapsis(deg)": 0.007913136824393542,
        "Eccentricity": 0.0,
        "Inclination(deg)": 45.0,
        "Latitude(deg)": -27.66034356387307,
        "Longitude(deg)": 15.892339504138398,
        "Mean Anomaly(deg)": -139.2601494870133,
        "RAAN(deg)": 264.99253023014484,
        "Satellite Name": "Constellation 1 1179",
        "Satellite Number": 1179,
        "Semi-Major Axis(m)": 7083131.272910544,
        "Time(s)": 132
    }
]